NORAD_CAT_ID,OBJECT_NAME,OBJECT_TYPE,EPOCH,MEAN_MOTION,ECCENTRICITY,INCLINATION,RA_OF_ASC_NODE,ARG_OF_PERICENTER,MEAN_ANOMALY,BSTAR,MEAN_MOTION_DOT,MEAN_MOTION_DDOT,TLE_LINE0,TLE_LINE1,TLE_LINE2,SEMIMAJOR_AXIS,PERIOD,APOGEE,PERIGEE,DECAYED
51893.0,STARLINK-3579,PAYLOAD,2023-03-23 20:06:14,15.08855615,0.0001332,53.2141,175.7429,76.7698,283.3443,0.0010275,0.00016109,0.0,0 STARLINK-3579,1 51893U 22022AT  23082.83767105  .00016109  00000-0  10275-2 0  9990,2 51893  53.2141 175.7429 0001332  76.7698 283.3443 15.08855615 59983,6917.833,95.437,540.619,538.776,0.0
51893.0,STARLINK-3579,PAYLOAD,2023-03-23 23:17:00,15.08866972,0.0001076,53.2141,175.1486,110.4859,249.6249,0.0012526,0.00019718,0.0,0 STARLINK-3579,1 51893U 22022AT  23082.97014655  .00019718  00000-0  12526-2 0  9990,2 51893  53.2141 175.1486 0001076 110.4859 249.6249 15.08866972 60002,6917.798,95.436,540.407,538.919,0.0
51893.0,STARLINK-3579,PAYLOAD,2023-03-24 12:00:04,15.08936082,0.0001234,53.2135,172.7691,107.4822,252.6305,0.0050644,0.00081459,0.0,0 STARLINK-3579,1 51893U 22022AT  23083.50004823  .00081459  00000-0  50644-2 0  9990,2 51893  53.2135 172.7691 0001234 107.4822 252.6305 15.08936082 60083,6917.587,95.431,540.305,538.598,0.0
51893.0,STARLINK-3579,PAYLOAD,2023-03-24 13:35:26,15.08947589,0.0001231,53.2134,172.4716,107.9833,252.1294,0.005047,0.00081201,0.0,0 STARLINK-3579,1 51893U 22022AT  23083.56628358  .00081201  00000-0  50470-2 0  9993,2 51893  53.2134 172.4716 0001231 107.9833 252.1294 15.08947589 60098,6917.552,95.431,540.268,538.565,0.0
51893.0,STARLINK-3579,PAYLOAD,2023-03-24 18:21:34,15.08967088,0.0001241,53.2134,171.5794,107.2523,252.8605,0.0031157,0.00049823,0.0,0 STARLINK-3579,1 51893U 22022AT  23083.76498809  .00049823  00000-0  31157-2 0  9996,2 51893  53.2134 171.5794 0001241 107.2523 252.8605 15.08967088 60127,6917.492,95.43,540.215,538.498,0.0
51893.0,STARLINK-3579,PAYLOAD,2023-03-24 23:07:43,15.08855013,0.0002473,53.2132,170.6876,254.67,105.4018,-0.00029726,-5.018e-05,0.0,0 STARLINK-3579,1 51893U 22022AT  23083.96370343 -.00005018  00000-0 -29726-3 0  9990,2 51893  53.2132 170.6876 0002473 254.6700 105.4018 15.08855013 60156,6917.835,95.437,541.41,537.989,0.0
51893.0,STARLINK-3579,PAYLOAD,2023-03-25 11:50:52,15.08777452,0.0001555,53.2133,168.3084,97.1981,262.9188,0.0031965,0.00050864,0.0,0 STARLINK-3579,1 51893U 22022AT  23084.49366709  .00050864  00000-0  31965-2 0  9994,2 51893  53.2133 168.3084 0001555  97.1981 262.9188 15.08777452 60239,6918.072,95.442,541.012,538.861,0.0
51893.0,STARLINK-3579,PAYLOAD,2023-03-25 15:01:39,15.08789801,0.0001539,53.2132,167.7136,96.6852,263.4315,0.0033021,0.00052585,0.0,0 STARLINK-3579,1 51893U 22022AT  23084.62615222  .00052585  00000-0  33021-2 0  9993,2 51893  53.2132 167.7136 0001539  96.6852 263.4315 15.08789801 60253,6918.034,95.441,540.964,538.834,0.0
51893.0,STARLINK-3579,PAYLOAD,2023-03-25 22:58:36,15.08800142,0.0001759,53.2132,166.2282,89.0414,271.0779,0.002369,0.00037575,0.0,0 STARLINK-3579,1 51893U 22022AT  23084.95736405  .00037575  00000-0  23690-2 0  9999,2 51893  53.2132 166.2282 0001759  89.0414 271.0779 15.08800142 60300,6918.002,95.44,541.084,538.65,0.0
51893.0,STARLINK-3579,PAYLOAD,2023-03-26 16:27:51,15.08847636,0.0001719,53.2134,162.9564,89.2963,270.8226,0.0021107,0.00033471,0.0,0 STARLINK-3579,1 51893U 22022AT  23085.68601077  .00033471  00000-0  21107-2 0  9998,2 51893  53.2134 162.9564 0001719  89.2963 270.8226 15.08847636 60410,6917.857,95.437,540.911,538.533,0.0
51893.0,STARLINK-3579,PAYLOAD,2023-03-27 05:10:56,15.08862569,0.0001619,53.2139,160.577,92.0457,268.072,0.0015979,0.0002525,0.0,0 STARLINK-3579,1 51893U 22022AT  23086.21592754  .00025250  00000-0  15979-2 0  9995,2 51893  53.2139 160.5770 0001619  92.0457 268.0720 15.08862569 60495,6917.811,95.436,540.796,538.556,0.0
51893.0,STARLINK-3579,PAYLOAD,2023-03-27 11:32:28,15.08869194,0.0001785,53.214,159.3878,88.171,271.9486,0.0013922,0.00021956,0.0,0 STARLINK-3579,1 51893U 22022AT  23086.48088361  .00021956  00000-0  13922-2 0  9993,2 51893  53.2140 159.3878 0001785  88.1710 271.9486 15.08869194 60532,6917.791,95.436,540.891,538.421,0.0
51893.0,STARLINK-3579,PAYLOAD,2023-03-27 16:18:37,15.08883518,0.000177,53.2139,158.4949,89.6681,270.4514,0.0016211,0.00025637,0.0,0 STARLINK-3579,1 51893U 22022AT  23086.67959746  .00025637  00000-0  16211-2 0  9992,2 51893  53.2139 158.4949 0001770  89.6681 270.4514 15.08883518 60561,6917.747,95.435,540.837,538.388,0.0
51893.0,STARLINK-3579,PAYLOAD,2023-03-28 05:01:42,15.08845594,0.000169,53.2144,156.1146,102.938,257.1801,0.00053348,8.214e-05,0.0,0 STARLINK-3579,1 51893U 22022AT  23087.20951975  .00008214  00000-0  53348-3 0  9993,2 51893  53.2144 156.1146 0001690 102.9380 257.1801 15.08845594 60649,6917.863,95.437,540.897,538.559,0.0
51893.0,STARLINK-3579,PAYLOAD,2023-03-28 09:47:51,15.08857786,0.0001808,53.2143,155.2219,101.9144,258.2051,0.00050391,7.745e-05,0.0,0 STARLINK-3579,1 51893U 22022AT  23087.40823686  .00007745  00000-0  50391-3 0  9995,2 51893  53.2143 155.2219 0001808 101.9144 258.2051 15.08857786 60675,6917.826,95.436,540.942,538.44,0.0
51893.0,STARLINK-3579,PAYLOAD,2023-03-28 20:55:33,15.08856698,0.0001695,53.2143,153.1431,90.9718,269.1468,0.00084584,0.00013205,0.0,0 STARLINK-3579,1 51893U 22022AT  23087.87191646  .00013205  00000-0  84584-3 0  9999,2 51893  53.2143 153.1431 0001695  90.9718 269.1468 15.08856698 60748,6917.829,95.436,540.867,538.522,0.0
51893.0,STARLINK-3579,PAYLOAD,2023-03-29 04:52:29,15.08851471,0.000252,53.2147,151.6556,91.4864,268.6417,0.0011031,0.00017317,0.0,0 STARLINK-3579,1 51893U 22022AT  23088.20311846  .00017317  00000-0  11031-2 0  9997,2 51893  53.2147 151.6556 0002520  91.4864 268.6417 15.08851471 60796,6917.845,95.437,541.454,537.967,0.0
51893.0,STARLINK-3579,PAYLOAD,2023-03-29 11:14:02,15.0884543,0.0001628,53.2147,150.4653,83.6876,276.4301,0.0018568,0.00029391,0.0,0 STARLINK-3579,1 51893U 22022AT  23088.46807944  .00029391  00000-0  18568-2 0  9991,2 51893  53.2147 150.4653 0001628  83.6876 276.4301 15.08845430 60837,6917.864,95.437,540.855,538.603,0.0
51893.0,STARLINK-3579,PAYLOAD,2023-03-29 16:00:11,15.08861676,0.0001571,53.2143,149.573,81.4791,278.6379,0.0021685,0.00034413,0.0,0 STARLINK-3579,1 51893U 22022AT  23088.66679719  .00034413  00000-0  21685-2 0  9995,2 51893  53.2143 149.5730 0001571  81.4791 278.6379 15.08861676 60869,6917.814,95.436,540.766,538.592,0.0
51893.0,STARLINK-3579,PAYLOAD,2023-03-30 04:43:16,15.08832568,0.0001168,53.2141,147.196,90.1565,269.9561,0.00025989,3.85e-05,0.0,0 STARLINK-3579,1 51893U 22022AT  23089.19672249  .00003850  00000-0  25989-3 0  9998,2 51893  53.2141 147.1960 0001168  90.1565 269.9561 15.08832568 60947,6917.903,95.438,540.576,538.96,0.0
51893.0,STARLINK-3579,PAYLOAD,2023-03-30 20:37:08,15.08844169,0.0001153,53.2144,144.2234,103.1643,256.9478,0.00092141,0.00014408,0.0,0 STARLINK-3579,1 51893U 22022AT  23089.85912453  .00014408  00000-0  92141-3 0  9990,2 51893  53.2144 144.2234 0001153 103.1643 256.9478 15.08844169 61043,6917.868,95.437,540.53,538.935,0.0
51893.0,STARLINK-3579,PAYLOAD,2023-03-31 09:20:13,15.0885229,0.0001352,53.2136,141.8426,97.6444,262.4701,0.0014455,0.000228,0.0,0 STARLINK-3579,1 51893U 22022AT  23090.38904436  .00022800  00000-0  14455-2 0  9998,2 51893  53.2136 141.8426 0001352  97.6444 262.4701 15.08852290 61121,6917.843,95.437,540.643,538.773,0.0
51893.0,STARLINK-3579,PAYLOAD,2023-03-31 20:27:55,15.08832074,2.87e-05,53.2139,139.7616,134.8907,225.2109,-6.0712e-05,-1.253e-05,0.0,0 STARLINK-3579,1 51893U 22022AT  23090.85272179 -.00001253  00000-0 -60712-4 0  9992,2 51893  53.2139 139.7616 0000287 134.8907 225.2109 15.08832074 61199,6917.905,95.438,539.968,539.571,0.0
51893.0,STARLINK-3579,PAYLOAD,2023-04-01 10:46:24,15.08835667,0.0001252,53.2136,137.0846,83.0857,277.0277,0.0016545,0.00026138,0.0,0 STARLINK-3579,1 51893U 22022AT  23091.44889112  .00026138  00000-0  16545-2 0  9999,2 51893  53.2136 137.0846 0001252  83.0857 277.0277 15.08835667 61286,6917.894,95.438,540.625,538.893,0.0
51893.0,STARLINK-3579,PAYLOAD,2023-04-01 20:18:43,15.08843628,0.0001273,53.2131,135.2995,82.6466,277.4671,0.0011475,0.00018023,0.0,0 STARLINK-3579,1 51893U 22022AT  23091.84633200  .00018023  00000-0  11475-2 0  9999,2 51893  53.2131 135.2995 0001273  82.6466 277.4671 15.08843628 61345,6917.869,95.437,540.615,538.854,0.0
51893.0,STARLINK-3579,PAYLOAD,2023-04-02 07:26:25,15.0884883,0.000139,53.2131,133.2188,80.4712,279.6437,0.0009934,0.00015561,0.0,0 STARLINK-3579,1 51893U 22022AT  23092.31001219  .00015561  00000-0  99340-3 0  9993,2 51893  53.2131 133.2188 0001390  80.4712 279.6437 15.08848830 61419,6917.853,95.437,540.68,538.757,0.0
51893.0,STARLINK-3579,PAYLOAD,2023-04-02 12:12:34,15.08852907,0.0001407,53.2145,132.3247,83.8426,276.2726,0.00078523,0.00012235,0.0,0 STARLINK-3579,1 51893U 22022AT  23092.50873030  .00012235  00000-0  78523-3 0  9997,2 51893  53.2145 132.3247 0001407  83.8426 276.2726 15.08852907 61445,6917.841,95.437,540.679,538.733,0.0
51893.0,STARLINK-3579,PAYLOAD,2023-04-02 20:09:30,15.0884031,0.0001819,53.2149,130.8453,47.23,312.8844,0.00046715,7.155e-05,0.0,0 STARLINK-3579,1 51893U 22022AT  23092.83993349  .00007155  00000-0  46715-3 0  9992,2 51893  53.2149 130.8453 0001819  47.2300 312.8844 15.08840310 61491,6917.879,95.438,541.003,538.486,0.0
51893.0,STARLINK-3579,PAYLOAD,2023-04-03 08:52:35,15.08843557,0.00015,53.2152,128.4615,70.6428,289.4726,0.00027596,4.107e-05,0.0,0 STARLINK-3579,1 51893U 22022AT  23093.36985213  .00004107  00000-0  27596-3 0  9992,2 51893  53.2152 128.4615 0001500  70.6428 289.4726 15.08843557 61579,6917.87,95.437,540.772,538.697,0.0
51893.0,STARLINK-3579,PAYLOAD,2023-04-03 13:38:44,15.08848687,0.0001336,53.2144,127.5663,90.2812,269.8333,0.00036244,5.486e-05,0.0,0 STARLINK-3579,1 51893U 22022AT  23093.56856960  .00005486  00000-0  36244-3 0  9991,2 51893  53.2144 127.5663 0001336  90.2812 269.8333 15.08848687 61604,6917.854,95.437,540.643,538.795,0.0
